      2.10          N: GNSS NAV DATA                        RINEX VERSION / TYPE
fic2rin                                 09/04/2022 00:17:37 PGM / RUN BY / DATE
                                                            END OF HEADER
10 22  9  3 12  0  0.0 -.165775418282D-05 -.170530256582D-11  .000000000000D+00
     .700000000000D+02 -.492187500000D+02  .430946522081D-08 -.168187397909D+00
    -.266171991825D-05  .786610238720D-02  .878237187862D-05  .515368381882D+04
     .561600000000D+06 -.316649675369D-07  .189504375410D+01  .104308128357D-06
     .974736158794D+00  .215812500000D+03 -.251133563148D+01 -.799997608826D-08
     .190007914592D-09  .100000000000D+01  .222500000000D+04  .000000000000D+00
     .340000000000D+01  .000000000000D+00  .232830643654D-08  .700000000000D+02
     .554400000000D+06  .400000000000D+01
15 22  9  3 12  0  0.0 -.320319086313D-04  .306954461848D-11  .000000000000D+00
     .380000000000D+02 -.208750000000D+02  .534236538811D-08  .309042688896D+01
    -.107474625111D-05  .145031482680D-01  .669434666634D-05  .515360636520D+04
     .561600000000D+06  .134110450745D-06  .281340171702D+01 -.165775418282D-06
     .931132385950D+00  .232062500000D+03  .112737188903D+01 -.818712674098D-08
     .500020827875D-10  .100000000000D+01  .222500000000D+04  .000000000000D+00
     .240000000000D+01  .000000000000D+00 -.107102096081D-07  .380000000000D+02
     .554400000000D+06  .400000000000D+01
8  22  9  3 12  0  0.0 -.830786302686D-04 -.147792889038D-11  .000000000000D+00
     .840000000000D+02  .399687500000D+02  .466126558899D-08 -.222846701760D+01
     .184774398804D-05  .747949955985D-02  .353902578354D-05  .515358569527D+04
     .561600000000D+06 -.745058059692D-07 -.219571949253D+00 -.163912773132D-06
     .962511340918D+00  .316000000000D+03  .165245364321D+00 -.832891836145D-08
     .147506144223D-09  .100000000000D+01  .222500000000D+04  .000000000000D+00
     .340000000000D+01  .000000000000D+00  .512227416039D-08  .840000000000D+02
     .554400000000D+06  .400000000000D+01
9  22  9  3 12  0  0.0 -.300634652376D-03  .454747350886D-11  .000000000000D+00
     .440000000000D+02 -.144375000000D+02  .488306054193D-08 -.177390864534D+01
    -.840052962303D-06  .243929564022D-02  .722333788872D-05  .515375940323D+04
     .561600000000D+06 -.521540641785D-07  .292469781809D+01  .428408384323D-07
     .955150727119D+00  .236406250000D+03  .190445033344D+01 -.811712382507D-08
     .160720980388D-10  .100000000000D+01  .222500000000D+04  .000000000000D+00
     .240000000000D+01  .000000000000D+00  .139698386192D-08  .440000000000D+02
     .554400000000D+06  .400000000000D+01
32 22  9  3 12  0  0.0 -.222357455641D-03 -.110276232590D-10  .000000000000D+00
     .290000000000D+02 -.183125000000D+02  .475019786481D-08 -.150379805372D+01
    -.996515154839D-06  .607474963181D-02  .747106969357D-05  .515363330650D+04
     .561600000000D+06  .214204192162D-06  .293674365233D+01 -.447034835815D-07
     .958914951388D+00  .238312500000D+03 -.229109410170D+01 -.797354641593D-08
    -.421446126351D-10  .100000000000D+01  .222500000000D+04  .000000000000D+00
     .240000000000D+01  .000000000000D+00  .465661287308D-09  .290000000000D+02
     .554400000000D+06  .400000000000D+01
30 22  9  3 12  0  0.0 -.536649022251D-03 -.341060513165D-12  .000000000000D+00
     .790000000000D+02  .803125000000D+01  .499770817461D-08  .108852581544D+01
     .586733222008D-06  .595114170574D-02  .911764800549D-05  .515371614838D+04
     .561600000000D+06 -.188127160072D-06 -.227701395845D+01  .614672899246D-07
     .935843219158D+00  .191750000000D+03 -.265288096513D+01 -.818034074403D-08
    -.372158359032D-09  .100000000000D+01  .222500000000D+04  .000000000000D+00
     .240000000000D+01  .000000000000D+00  .372529029846D-08  .790000000000D+02
     .554400000000D+06  .400000000000D+01
21 22  9  3 12  0  0.0  .159874092788D-03 -.454747350886D-12  .000000000000D+00
     .430000000000D+02 -.730000000000D+02  .447232914760D-08 -.218099524986D+01
    -.324286520481D-05  .243032248691D-01  .572018325329D-05  .515371319771D+04
     .561600000000D+06 -.169500708580D-06  .768157463173D+00  .527128577232D-06
     .960801208701D+00  .269437500000D+03 -.901000448685D+00 -.794747390133D-08
    -.446447167745D-10  .100000000000D+01  .222500000000D+04  .000000000000D+00
     .240000000000D+01  .000000000000D+00 -.102445483208D-07  .430000000000D+02
     .554400000000D+06  .400000000000D+01
11 22  9  3 12  0  0.0 -.140806660056D-04 -.216004991671D-11  .000000000000D+00
     .173000000000D+03 -.620312500000D+02  .442589864216D-08 -.243387138353D+01
    -.323355197906D-05  .696025672369D-03  .649690628052D-05  .515363537407D+04
     .561600000000D+06 -.670552253723D-07  .903574707593D+00 -.447034835815D-07
     .963700789869D+00  .255312500000D+03  .305263640878D+01 -.808962267954D-08
    -.353586156854D-10  .100000000000D+01  .222500000000D+04  .000000000000D+00
     .240000000000D+01  .000000000000D+00 -.838190317154D-08  .685000000000D+03
     .554400000000D+06  .400000000000D+01
26 22  9  3 12  0  0.0  .226830597967D-03  .181898940355D-11  .000000000000D+00
     .270000000000D+02  .959687500000D+02  .493449125565D-08 -.466654921479D+00
     .506266951561D-05  .712869991548D-02  .788830220699D-05  .515381217957D+04
     .561600000000D+06  .113621354103D-06 -.130294557202D+01  .409781932831D-07
     .936158407784D+00  .212031250000D+03  .383404370240D+00 -.839784980415D-08
    -.175007289756D-10  .100000000000D+01  .222500000000D+04  .000000000000D+00
     .240000000000D+01  .000000000000D+00  .698491930962D-08  .270000000000D+02
     .554400000000D+06  .400000000000D+01
27 22  9  3 12  0  0.0  .215042382479D-03 -.329691829393D-11  .000000000000D+00
     .950000000000D+02  .326875000000D+02  .448018661776D-08 -.221076628962D+01
     .144354999065D-05  .105695009697D-01  .301748514175D-05  .515366036415D+04
     .561600000000D+06  .782310962677D-07 -.198492241850D+00 -.137835741043D-06
     .971308742154D+00  .326937500000D+03  .688561294462D+00 -.817712632442D-08
     .182150444440D-09  .100000000000D+01  .222500000000D+04  .000000000000D+00
     .240000000000D+01  .000000000000D+00  .139698386192D-08  .950000000000D+02
     .554400000000D+06  .400000000000D+01
20 22  9  3 12  0  0.0  .489477533847D-03 -.306954461848D-11  .000000000000D+00
     .490000000000D+02 -.487187500000D+02  .480162857853D-08  .292826079018D+01
    -.262260437012D-05  .477214809507D-02  .837631523609D-05  .515364855385D+04
     .561600000000D+06 -.800937414169D-07  .173696440768D+01 -.316649675369D-07
     .944321183453D+00  .210781250000D+03 -.310095049988D+01 -.809890878063D-08
     .168578450541D-09  .100000000000D+01  .222500000000D+04  .000000000000D+00
     .340000000000D+01  .000000000000D+00 -.838190317154D-08  .490000000000D+02
     .554400000000D+06  .400000000000D+01
13 22  9  3 12  0  0.0  .380381476134D-03  .727595761418D-11  .000000000000D+00
     .290000000000D+02 -.205312500000D+02  .444447084434D-08 -.268208732437D+01
    -.959262251854D-06  .638209388126D-02  .740401446819D-05  .515367213440D+04
     .561600000000D+06  .614672899246D-07  .308068651560D+01 -.447034835815D-07
     .969365943057D+00  .240812500000D+03  .931189324184D+00 -.784532678935D-08
    -.300012496725D-10  .100000000000D+01  .222500000000D+04  .000000000000D+00
     .240000000000D+01  .000000000000D+00 -.111758708954D-07  .290000000000D+02
     .554400000000D+06  .400000000000D+01
17 22  9  3 12  0  0.0  .655313022435D-03  .397903932026D-11  .000000000000D+00
     .180000000000D+02  .268750000000D+02  .425624871841D-08 -.220293713827D+01
     .165402889252D-05  .136655673850D-01  .326335430145D-05  .515361166763D+04
     .561600000000D+06  .156462192535D-06 -.134676229600D+00  .178813934326D-06
     .977884512106D+00  .320968750000D+03 -.148313627860D+01 -.791032949697D-08
     .120004998690D-09  .100000000000D+01  .222500000000D+04  .000000000000D+00
     .240000000000D+01  .000000000000D+00 -.111758708954D-07  .180000000000D+02
     .554400000000D+06  .400000000000D+01
22 22  9  3 12  0  0.0  .321242492646D-03  .670752342558D-11  .000000000000D+00
     .430000000000D+02 -.174062500000D+02  .455840416154D-08 -.240821384412D+01
    -.802800059319D-06  .134338386124D-01  .744685530663D-05  .515372713852D+04
     .561600000000D+06  .150874257088D-06  .302763446293D+01 -.745058059692D-07
     .962110094673D+00  .237375000000D+03 -.184505698148D+01 -.769067749044D-08
     .157149403046D-10  .100000000000D+01  .222500000000D+04  .000000000000D+00
     .240000000000D+01  .000000000000D+00 -.791624188423D-08  .430000000000D+02
     .554400000000D+06  .400000000000D+01
18 22  9  3 12  0  0.0  .608717091382D-04 -.125055521494D-10  .000000000000D+00
     .150000000000D+03 -.775000000000D+02  .436875340469D-08  .213446857840D+01
    -.392459332943D-05  .278803939000D-02  .671111047268D-05  .515373025894D+04
     .561600000000D+06  .223517417908D-07  .869339481147D+00  .169500708580D-06
     .972311598829D+00  .256250000000D+03  .304694203380D+01 -.812140971788D-08
    -.182150444440D-10  .100000000000D+01  .222500000000D+04  .000000000000D+00
     .240000000000D+01  .000000000000D+00 -.838190317154D-08  .150000000000D+03
     .554400000000D+06  .400000000000D+01
24 22  9  3 12  0  0.0  .147944781929D-03 -.125055521494D-10  .000000000000D+00
     .102000000000D+03  .100625000000D+02  .497699302602D-08  .214826267142D+01
     .352039933205D-06  .129109851550D-01  .911578536034D-05  .515367755318D+04
     .561600000000D+06 -.145286321640D-06 -.237326023419D+01 -.197440385818D-06
     .934291867681D+00  .190218750000D+03  .833053135298D+00 -.813962476233D-08
    -.263225250103D-09  .100000000000D+01  .222500000000D+04  .000000000000D+00
     .240000000000D+01  .000000000000D+00  .279396772385D-08  .102000000000D+03
     .554400000000D+06  .400000000000D+01
